{
  "type": "FeatureCollection",
  "features": [
    {
      "type": "Feature",
      "properties": {
        "norad_id": 30453,
        "name": "FENGYUN 1C DEB",
        "group": "fengyun-1c-debris",
        "lat": 65.77079933604598,
        "lon": -109.40334730849588,
        "alt_km": 863.0806894955349,
        "timestamp": "2025-12-04T17:48:40.442289+00:00",
        "meta_object_name": "FENGYUN 1C DEB",
        "meta_object_id": "1999-025AFQ",
        "meta_epoch": "2025-12-04T04:03:16.691616",
        "meta_mean_motion": 14.24653271,
        "meta_eccentricity": 0.01152655,
        "meta_inclination": 98.8143,
        "meta_ra_of_asc_node": 49.8528,
        "meta_arg_of_pericenter": 251.0258,
        "meta_mean_anomaly": 164.3937,
        "meta_ephemeris_type": 0,
        "meta_classification_type": "U",
        "meta_norad_cat_id": 30453,
        "meta_element_set_no": 999,
        "meta_rev_at_epoch": 97112,
        "meta_bstar": 0.0032409933,
        "meta_mean_motion_dot": 8.037e-05,
        "meta_mean_motion_ddot": 0,
        "tle_line1": "1 30453U 99025AFQ 25338.16894319  .00008037  00000+0  32410-2 0  9991",
        "tle_line2": "2 30453  98.8143  49.8528 0115265 251.0258 164.3937 14.24653271971127"
      },
      "geometry": {
        "type": "Point",
        "coordinates": [
          -109.40334730849588,
          65.77079933604598
        ]
      }
    },
    {
      "type": "Feature",
      "properties": {
        "norad_id": 30454,
        "name": "FENGYUN 1C DEB",
        "group": "fengyun-1c-debris",
        "lat": 24.225477613730682,
        "lon": -54.01520890669398,
        "alt_km": 960.6676330380187,
        "timestamp": "2025-12-04T17:48:40.442298+00:00",
        "meta_object_name": "FENGYUN 1C DEB",
        "meta_object_id": "1999-025AFR",
        "meta_epoch": "2025-12-04T04:13:30.154080",
        "meta_mean_motion": 14.15273339,
        "meta_eccentricity": 0.01715232,
        "meta_inclination": 98.1337,
        "meta_ra_of_asc_node": 309.1575,
        "meta_arg_of_pericenter": 220.3487,
        "meta_mean_anomaly": 161.1643,
        "meta_ephemeris_type": 0,
        "meta_classification_type": "U",
        "meta_norad_cat_id": 30454,
        "meta_element_set_no": 999,
        "meta_rev_at_epoch": 95839,
        "meta_bstar": 0.0040828908,
        "meta_mean_motion_dot": 9.129e-05,
        "meta_mean_motion_ddot": 0,
        "tle_line1": "1 30454U 99025AFR 25338.17604345  .00009129  00000+0  40829-2 0  9997",
        "tle_line2": "2 30454  98.1337 309.1575 0171523 220.3487 161.1643 14.15273339958398"
      },
      "geometry": {
        "type": "Point",
        "coordinates": [
          -54.01520890669398,
          24.225477613730682
        ]
      }
    },
    {
      "type": "Feature",
      "properties": {
        "norad_id": 30462,
        "name": "FENGYUN 1C DEB",
        "group": "fengyun-1c-debris",
        "lat": 26.2851403814004,
        "lon": -37.203637700572834,
        "alt_km": 910.7260067535099,
        "timestamp": "2025-12-04T17:48:40.442308+00:00",
        "meta_object_name": "FENGYUN 1C DEB",
        "meta_object_id": "1999-025AFZ",
        "meta_epoch": "2025-12-02T17:00:40.871232",
        "meta_mean_motion": 14.0625239,
        "meta_eccentricity": 0.01388398,
        "meta_inclination": 98.8161,
        "meta_ra_of_asc_node": 325.212,
        "meta_arg_of_pericenter": 278.5852,
        "meta_mean_anomaly": 258.6353,
        "meta_ephemeris_type": 0,
        "meta_classification_type": "U",
        "meta_norad_cat_id": 30462,
        "meta_element_set_no": 999,
        "meta_rev_at_epoch": 96652,
        "meta_bstar": 0.00035122116,
        "meta_mean_motion_dot": 5.87e-06,
        "meta_mean_motion_ddot": 0,
        "tle_line1": "1 30462U 99025AFZ 25336.70880638  .00000587  00000+0  35122-3 0  9994",
        "tle_line2": "2 30462  98.8161 325.2120 0138839 278.5852 258.6353 14.06252390966526"
      },
      "geometry": {
        "type": "Point",
        "coordinates": [
          -37.203637700572834,
          26.2851403814004
        ]
      }
    },
    {
      "type": "Feature",
      "properties": {
        "norad_id": 30464,
        "name": "FENGYUN 1C DEB",
        "group": "fengyun-1c-debris",
        "lat": -36.04394560762744,
        "lon": 35.68424188234344,
        "alt_km": 806.32385990074,
        "timestamp": "2025-12-04T17:48:40.442319+00:00",
        "meta_object_name": "FENGYUN 1C DEB",
        "meta_object_id": "1999-025AGB",
        "meta_epoch": "2025-12-04T02:55:02.754624",
        "meta_mean_motion": 14.10240739,
        "meta_eccentricity": 0.01082838,
        "meta_inclination": 98.8385,
        "meta_ra_of_asc_node": 28.5729,
        "meta_arg_of_pericenter": 283.1388,
        "meta_mean_anomaly": 130.7615,
        "meta_ephemeris_type": 0,
        "meta_classification_type": "U",
        "meta_norad_cat_id": 30464,
        "meta_element_set_no": 999,
        "meta_rev_at_epoch": 96942,
        "meta_bstar": 0.00014082376,
        "meta_mean_motion_dot": 2.19e-06,
        "meta_mean_motion_ddot": 0,
        "tle_line1": "1 30464U 99025AGB 25338.12155966  .00000219  00000+0  14082-3 0  9997",
        "tle_line2": "2 30464  98.8385  28.5729 0108283 283.1388 130.7615 14.10240739969422"
      },
      "geometry": {
        "type": "Point",
        "coordinates": [
          35.68424188234344,
          -36.04394560762744
        ]
      }
    },
    {
      "type": "Feature",
      "properties": {
        "norad_id": 30465,
        "name": "FENGYUN 1C DEB",
        "group": "fengyun-1c-debris",
        "lat": -30.48762076879812,
        "lon": -118.45850609089095,
        "alt_km": 796.2835311055533,
        "timestamp": "2025-12-04T17:48:40.442329+00:00",
        "meta_object_name": "FENGYUN 1C DEB",
        "meta_object_id": "1999-025AGC",
        "meta_epoch": "2025-12-04T05:21:38.457792",
        "meta_mean_motion": 14.33742083,
        "meta_eccentricity": 0.00172255,
        "meta_inclination": 98.8305,
        "meta_ra_of_asc_node": 66.2635,
        "meta_arg_of_pericenter": 57.6494,
        "meta_mean_anomaly": 356.9319,
        "meta_ephemeris_type": 0,
        "meta_classification_type": "U",
        "meta_norad_cat_id": 30465,
        "meta_element_set_no": 999,
        "meta_rev_at_epoch": 97236,
        "meta_bstar": 0.0044022894,
        "meta_mean_motion_dot": 0.00012222,
        "meta_mean_motion_ddot": 0,
        "tle_line1": "1 30465U 99025AGC 25338.22336178  .00012222  00000+0  44023-2 0  9999",
        "tle_line2": "2 30465  98.8305  66.2635 0017225  57.6494 356.9319 14.33742083972361"
      },
      "geometry": {
        "type": "Point",
        "coordinates": [
          -118.45850609089095,
          -30.48762076879812
        ]
      }
    },
    {
      "type": "Feature",
      "properties": {
        "norad_id": 30466,
        "name": "FENGYUN 1C DEB",
        "group": "fengyun-1c-debris",
        "lat": 59.59021062031163,
        "lon": -146.0473194163183,
        "alt_km": 783.928415960776,
        "timestamp": "2025-12-04T17:48:40.442339+00:00",
        "meta_object_name": "FENGYUN 1C DEB",
        "meta_object_id": "1999-025AGD",
        "meta_epoch": "2025-12-04T02:19:35.134752",
        "meta_mean_motion": 14.22456912,
        "meta_eccentricity": 0.01170483,
        "meta_inclination": 98.6563,
        "meta_ra_of_asc_node": 18.2754,
        "meta_arg_of_pericenter": 49.354,
        "meta_mean_anomaly": 6.4772,
        "meta_ephemeris_type": 0,
        "meta_classification_type": "U",
        "meta_norad_cat_id": 30466,
        "meta_element_set_no": 999,
        "meta_rev_at_epoch": 97228,
        "meta_bstar": 0.0024811341,
        "meta_mean_motion_dot": 5.893e-05,
        "meta_mean_motion_ddot": 0,
        "tle_line1": "1 30466U 99025AGD 25338.09693443  .00005893  00000+0  24811-2 0  9995",
        "tle_line2": "2 30466  98.6563  18.2754 0117048  49.3540   6.4772 14.22456912972281"
      },
      "geometry": {
        "type": "Point",
        "coordinates": [
          -146.0473194163183,
          59.59021062031163
        ]
      }
    },
    {
      "type": "Feature",
      "properties": {
        "norad_id": 30467,
        "name": "FENGYUN 1C DEB",
        "group": "fengyun-1c-debris",
        "lat": 58.52418908879593,
        "lon": -7.985828595234383,
        "alt_km": 829.0920020312433,
        "timestamp": "2025-12-04T17:48:40.442361+00:00",
        "meta_object_name": "FENGYUN 1C DEB",
        "meta_object_id": "1999-025AGE",
        "meta_epoch": "2025-12-04T00:52:25.455936",
        "meta_mean_motion": 14.1722826,
        "meta_eccentricity": 0.00652923,
        "meta_inclination": 98.6799,
        "meta_ra_of_asc_node": 5.7741,
        "meta_arg_of_pericenter": 152.1434,
        "meta_mean_anomaly": 269.6607,
        "meta_ephemeris_type": 0,
        "meta_classification_type": "U",
        "meta_norad_cat_id": 30467,
        "meta_element_set_no": 999,
        "meta_rev_at_epoch": 97054,
        "meta_bstar": 0.0016865921,
        "meta_mean_motion_dot": 3.434e-05,
        "meta_mean_motion_ddot": 0,
        "tle_line1": "1 30467U 99025AGE 25338.03640574  .00003434  00000+0  16866-2 0  9997",
        "tle_line2": "2 30467  98.6799   5.7741 0065292 152.1434 269.6607 14.17228260970542"
      },
      "geometry": {
        "type": "Point",
        "coordinates": [
          -7.985828595234383,
          58.52418908879593
        ]
      }
    }
  ]
}